[{"OBJECT_NAME":"SPIP","OBJECT_ID":"2023-174AU","EPOCH":"2026-03-09T22:52:46.383168","MEAN_MOTION":15.26695413,"ECCENTRICITY":0.00100427,"INCLINATION":97.3901,"RA_OF_ASC_NODE":146.4534,"ARG_OF_PERICENTER":168.1112,"MEAN_ANOMALY":192.0366,"EPHEMERIS_TYPE":0,"CLASSIFICATION_TYPE":"U","NORAD_CAT_ID":58298,"ELEMENT_SET_NO":999,"REV_AT_EPOCH":12963,"BSTAR":0.00025731582,"MEAN_MOTION_DOT":6.692e-5,"MEAN_MOTION_DDOT":0},{"OBJECT_NAME":"STARLINK-31364","OBJECT_ID":"2024-068J","EPOCH":"2026-03-09T22:37:54.050016","MEAN_MOTION":15.27568214,"ECCENTRICITY":0.0001134,"INCLINATION":43.0044,"RA_OF_ASC_NODE":29.444,"ARG_OF_PERICENTER":289.8415,"MEAN_ANOMALY":70.2315,"EPHEMERIS_TYPE":0,"CLASSIFICATION_TYPE":"U","NORAD_CAT_ID":59463,"ELEMENT_SET_NO":999,"REV_AT_EPOCH":10860,"BSTAR":1.3944955e-5,"MEAN_MOTION_DOT":1.22e-6,"MEAN_MOTION_DDOT":0}]
